[{"OBJECT_NAME":"ONEWEB-0602","OBJECT_ID":"2022-166AA","EPOCH":"2026-01-31T05:10:06.190752","MEAN_MOTION":13.21824024,"ECCENTRICITY":0.00013738,"INCLINATION":87.9202,"RA_OF_ASC_NODE":271.3296,"ARG_OF_PERICENTER":71.3912,"MEAN_ANOMALY":288.7371,"EPHEMERIS_TYPE":0,"CLASSIFICATION_TYPE":"U","NORAD_CAT_ID":54666,"ELEMENT_SET_NO":999,"REV_AT_EPOCH":15345,"BSTAR":4.183987e-6,"MEAN_MOTION_DOT":1.5e-7,"MEAN_MOTION_DDOT":0},{"OBJECT_NAME":"ONEWEB-0603","OBJECT_ID":"2022-166AB","EPOCH":"2026-01-31T05:18:23.682816","MEAN_MOTION":13.21824381,"ECCENTRICITY":0.0001668,"INCLINATION":87.9211,"RA_OF_ASC_NODE":271.2707,"ARG_OF_PERICENTER":76.4499,"MEAN_ANOMALY":283.6821,"EPHEMERIS_TYPE":0,"CLASSIFICATION_TYPE":"U","NORAD_CAT_ID":54667,"ELEMENT_SET_NO":999,"REV_AT_EPOCH":15338,"BSTAR":-1.0716374e-5,"MEAN_MOTION_DOT":9.0e-8,"MEAN_MOTION_DDOT":0},{"OBJECT_NAME":"ONEWEB-0604","OBJECT_ID":"2022-166AC","EPOCH":"2026-01-31T03:12:48.317184","MEAN_MOTION":13.21824525,"ECCENTRICITY":0.00014863,"INCLINATION":87.92,"RA_OF_ASC_NODE":271.3037,"ARG_OF_PERICENTER":83.0194,"MEAN_ANOMALY":277.1109,"EPHEMERIS_TYPE":0,"CLASSIFICATION_TYPE":"U","NORAD_CAT_ID":54668,"ELEMENT_SET_NO":999,"REV_AT_EPOCH":15333,"BSTAR":0.00023999712,"MEAN_MOTION_DOT":1.12e-6,"MEAN_MOTION_DDOT":0},{"OBJECT_NAME":"ONEWEB-0605","OBJECT_ID":"2022-166AD","EPOCH":"2026-01-31T03:03:21.083904","MEAN_MOTION":13.21824284,"ECCENTRICITY":0.00021392,"INCLINATION":87.9197,"RA_OF_ASC_NODE":271.3319,"ARG_OF_PERICENTER":77.2831,"MEAN_ANOMALY":282.8542,"EPHEMERIS_TYPE":0,"CLASSIFICATION_TYPE":"U","NORAD_CAT_ID":54669,"ELEMENT_SET_NO":999,"REV_AT_EPOCH":15340,"BSTAR":-0.00013686956,"MEAN_MOTION_DOT":-4.4e-7,"MEAN_MOTION_DDOT":0},{"OBJECT_NAME":"ONEWEB-0606","OBJECT_ID":"2022-166AE","EPOCH":"2026-01-31T03:34:08.071392","MEAN_MOTION":13.21828038,"ECCENTRICITY":0.00015033,"INCLINATION":87.9198,"RA_OF_ASC_NODE":271.3402,"ARG_OF_PERICENTER":86.789,"MEAN_ANOMALY":273.3416,"EPHEMERIS_TYPE":0,"CLASSIFICATION_TYPE":"U","NORAD_CAT_ID":54670,"ELEMENT_SET_NO":999,"REV_AT_EPOCH":15346,"BSTAR":0.00040038096,"MEAN_MOTION_DOT":1.78e-6,"MEAN_MOTION_DDOT":0},{"OBJECT_NAME":"ONEWEB-0607","OBJECT_ID":"2022-166AF","EPOCH":"2026-01-31T02:46:44.592960","MEAN_MOTION":13.21827894,"ECCENTRICITY":0.00015722,"INCLINATION":87.9198,"RA_OF_ASC_NODE":271.3104,"ARG_OF_PERICENTER":73.9589,"MEAN_ANOMALY":286.1718,"EPHEMERIS_TYPE":0,"CLASSIFICATION_TYPE":"U","NORAD_CAT_ID":54671,"ELEMENT_SET_NO":999,"REV_AT_EPOCH":15343,"BSTAR":0.00016312618,"MEAN_MOTION_DOT":8.0e-7,"MEAN_MOTION_DDOT":0},{"OBJECT_NAME":"ONEWEB-0608","OBJECT_ID":"2022-166AG","EPOCH":"2026-01-31T02:56:14.089056","MEAN_MOTION":13.2182474,"ECCENTRICITY":0.00019989,"INCLINATION":87.9207,"RA_OF_ASC_NODE":271.3003,"ARG_OF_PERICENTER":69.1387,"MEAN_ANOMALY":290.9961,"EPHEMERIS_TYPE":0,"CLASSIFICATION_TYPE":"U","NORAD_CAT_ID":54672,"ELEMENT_SET_NO":999,"REV_AT_EPOCH":15344,"BSTAR":0.00014823563,"MEAN_MOTION_DOT":7.4e-7,"MEAN_MOTION_DDOT":0},{"OBJECT_NAME":"ONEWEB-0610","OBJECT_ID":"2022-166AH","EPOCH":"2026-01-31T04:16:48.134496","MEAN_MOTION":13.21825339,"ECCENTRICITY":0.00019883,"INCLINATION":87.9198,"RA_OF_ASC_NODE":271.3177,"ARG_OF_PERICENTER":68.1063,"MEAN_ANOMALY":292.0282,"EPHEMERIS_TYPE":0,"CLASSIFICATION_TYPE":"U","NORAD_CAT_ID":54673,"ELEMENT_SET_NO":999,"REV_AT_EPOCH":15335,"BSTAR":4.4886249e-5,"MEAN_MOTION_DOT":3.2e-7,"MEAN_MOTION_DDOT":0},{"OBJECT_NAME":"ONEWEB-0611","OBJECT_ID":"2022-166AJ","EPOCH":"2026-01-31T04:07:18.379200","MEAN_MOTION":13.21828372,"ECCENTRICITY":0.00014037,"INCLINATION":87.9196,"RA_OF_ASC_NODE":271.3153,"ARG_OF_PERICENTER":85.5395,"MEAN_ANOMALY":274.5899,"EPHEMERIS_TYPE":0,"CLASSIFICATION_TYPE":"U","NORAD_CAT_ID":54674,"ELEMENT_SET_NO":999,"REV_AT_EPOCH":15334,"BSTAR":-3.713479e-5,"MEAN_MOTION_DOT":-2.0e-8,"MEAN_MOTION_DDOT":0},{"OBJECT_NAME":"ONEWEB-0612","OBJECT_ID":"2022-166AK","EPOCH":"2026-01-30T15:43:16.986144","MEAN_MOTION":13.21824898,"ECCENTRICITY":0.00016146,"INCLINATION":87.9205,"RA_OF_ASC_NODE":271.3989,"ARG_OF_PERICENTER":76.6616,"MEAN_ANOMALY":283.4697,"EPHEMERIS_TYPE":0,"CLASSIFICATION_TYPE":"U","NORAD_CAT_ID":54675,"ELEMENT_SET_NO":999,"REV_AT_EPOCH":15326,"BSTAR":-4.7125654e-5,"MEAN_MOTION_DOT":-6.0e-8,"MEAN_MOTION_DDOT":0},{"OBJECT_NAME":"ONEWEB-0615","OBJECT_ID":"2022-166AL","EPOCH":"2026-01-31T03:57:50.127264","MEAN_MOTION":13.21827647,"ECCENTRICITY":0.00015619,"INCLINATION":87.9201,"RA_OF_ASC_NODE":271.3238,"ARG_OF_PERICENTER":78.7838,"MEAN_ANOMALY":281.3471,"EPHEMERIS_TYPE":0,"CLASSIFICATION_TYPE":"U","NORAD_CAT_ID":54676,"ELEMENT_SET_NO":999,"REV_AT_EPOCH":15334,"BSTAR":6.6838662e-5,"MEAN_MOTION_DOT":4.1e-7,"MEAN_MOTION_DDOT":0},{"OBJECT_NAME":"ONEWEB-0655","OBJECT_ID":"2022-166AM","EPOCH":"2026-01-31T05:11:17.698848","MEAN_MOTION":13.21828165,"ECCENTRICITY":0.00014444,"INCLINATION":87.9197,"RA_OF_ASC_NODE":271.3156,"ARG_OF_PERICENTER":71.9813,"MEAN_ANOMALY":288.1478,"EPHEMERIS_TYPE":0,"CLASSIFICATION_TYPE":"U","NORAD_CAT_ID":54677,"ELEMENT_SET_NO":999,"REV_AT_EPOCH":15334,"BSTAR":0.00029627637,"MEAN_MOTION_DOT":1.35e-6,"MEAN_MOTION_DDOT":0},{"OBJECT_NAME":"ONEWEB-0659","OBJECT_ID":"2022-166AN","EPOCH":"2026-01-31T03:45:58.794336","MEAN_MOTION":13.21827898,"ECCENTRICITY":0.00015465,"INCLINATION":87.9199,"RA_OF_ASC_NODE":271.3286,"ARG_OF_PERICENTER":83.0122,"MEAN_ANOMALY":277.1187,"EPHEMERIS_TYPE":0,"CLASSIFICATION_TYPE":"U","NORAD_CAT_ID":54678,"ELEMENT_SET_NO":999,"REV_AT_EPOCH":15342,"BSTAR":0.00042888731,"MEAN_MOTION_DOT":1.9e-6,"MEAN_MOTION_DDOT":0},{"OBJECT_NAME":"ONEWEB-0685","OBJECT_ID":"2022-166AP","EPOCH":"2026-01-31T03:46:05.385792","MEAN_MOTION":13.21840325,"ECCENTRICITY":0.00018095,"INCLINATION":87.9196,"RA_OF_ASC_NODE":271.3242,"ARG_OF_PERICENTER":77.0909,"MEAN_ANOMALY":283.0427,"EPHEMERIS_TYPE":0,"CLASSIFICATION_TYPE":"U","NORAD_CAT_ID":54679,"ELEMENT_SET_NO":999,"REV_AT_EPOCH":15331,"BSTAR":9.0701858e-5,"MEAN_MOTION_DOT":5.0e-7,"MEAN_MOTION_DDOT":0},{"OBJECT_NAME":"ONEWEB-0712","OBJECT_ID":"2022-166AQ","EPOCH":"2026-01-31T02:43:25.336416","MEAN_MOTION":13.16594459,"ECCENTRICITY":0.00011031,"INCLINATION":87.9014,"RA_OF_ASC_NODE":256.0602,"ARG_OF_PERICENTER":67.3575,"MEAN_ANOMALY":292.7673,"EPHEMERIS_TYPE":0,"CLASSIFICATION_TYPE":"U","NORAD_CAT_ID":54680,"ELEMENT_SET_NO":999,"REV_AT_EPOCH":15402,"BSTAR":0.00018570732,"MEAN_MOTION_DOT":8.4e-7,"MEAN_MOTION_DDOT":0},{"OBJECT_NAME":"ONEWEB-0714","OBJECT_ID":"2022-166AR","EPOCH":"2026-01-31T03:55:27.475680","MEAN_MOTION":13.21824606,"ECCENTRICITY":0.0001526,"INCLINATION":87.9199,"RA_OF_ASC_NODE":271.3175,"ARG_OF_PERICENTER":72.5849,"MEAN_ANOMALY":287.5451,"EPHEMERIS_TYPE":0,"CLASSIFICATION_TYPE":"U","NORAD_CAT_ID":54681,"ELEMENT_SET_NO":999,"REV_AT_EPOCH":15343,"BSTAR":0.0003489657,"MEAN_MOTION_DOT":1.57e-6,"MEAN_MOTION_DDOT":0}]
