ONEWEB-0602             
1 54666U 22166AA  26031.21534943  .00000015  00000+0  41840-5 0  9994
2 54666  87.9202 271.3296 0001373  71.3912 288.7371 13.21824024153455
ONEWEB-0603             
1 54667U 22166AB  26031.22110744  .00000009  00000+0 -10716-4 0  9996
2 54667  87.9211 271.2707 0001668  76.4499 283.6821 13.21824381153387
ONEWEB-0604             
1 54668U 22166AC  26031.13389256  .00000112  00000+0  24000-3 0  9997
2 54668  87.9200 271.3037 0001486  83.0194 277.1109 13.21824525153339
ONEWEB-0605             
1 54669U 22166AD  26031.12732736 -.00000044  00000+0 -13687-3 0  9997
2 54669  87.9197 271.3319 0002139  77.2831 282.8542 13.21824284153401
ONEWEB-0606             
1 54670U 22166AE  26031.14870453  .00000178  00000+0  40038-3 0  9996
2 54670  87.9198 271.3402 0001503  86.7890 273.3416 13.21828038153463
ONEWEB-0607             
1 54671U 22166AF  26031.11579390  .00000080  00000+0  16313-3 0  9991
2 54671  87.9198 271.3104 0001572  73.9589 286.1718 13.21827894153435
ONEWEB-0608             
1 54672U 22166AG  26031.12238529  .00000074  00000+0  14824-3 0  9997
2 54672  87.9207 271.3003 0001998  69.1387 290.9961 13.21824740153441
ONEWEB-0610             
1 54673U 22166AH  26031.17833489  .00000032  00000+0  44886-4 0  9995
2 54673  87.9198 271.3177 0001988  68.1063 292.0282 13.21825339153356
ONEWEB-0611             
1 54674U 22166AJ  26031.17174050 -.00000002  00000+0 -37135-4 0  9996
2 54674  87.9196 271.3153 0001403  85.5395 274.5899 13.21828372153340
ONEWEB-0612             
1 54675U 22166AK  26030.65505771 -.00000006  00000+0 -47126-4 0  9992
2 54675  87.9205 271.3989 0001614  76.6616 283.4697 13.21824898153265
ONEWEB-0615             
1 54676U 22166AL  26031.16516351  .00000041  00000+0  66839-4 0  9995
2 54676  87.9201 271.3238 0001561  78.7838 281.3471 13.21827647153340
ONEWEB-0655             
1 54677U 22166AM  26031.21617707  .00000135  00000+0  29628-3 0  9997
2 54677  87.9197 271.3156 0001444  71.9813 288.1478 13.21828165153340
ONEWEB-0659             
1 54678U 22166AN  26031.15693049  .00000190  00000+0  42889-3 0  9999
2 54678  87.9199 271.3286 0001546  83.0122 277.1187 13.21827898153423
ONEWEB-0685             
1 54679U 22166AP  26031.15700678  .00000050  00000+0  90702-4 0  9990
2 54679  87.9196 271.3242 0001809  77.0909 283.0427 13.21840325153312
ONEWEB-0712             
1 54680U 22166AQ  26031.11348769  .00000084  00000+0  18571-3 0  9997
2 54680  87.9014 256.0602 0001103  67.3575 292.7673 13.16594459154028
ONEWEB-0714             
1 54681U 22166AR  26031.16351245  .00000157  00000+0  34897-3 0  9996
2 54681  87.9199 271.3175 0001526  72.5849 287.5451 13.21824606153435
